[
    {
        "Altitude(m)": 617719.7185168945,
        "Argument of Periapsis(deg)": 0.0,
        "Eccentricity": 0.0,
        "Inclination(deg)": 60.0,
        "Latitude(deg)": -41.102498177505154,
        "Longitude(deg)": 85.09465025001406,
        "Mean Anomaly(deg)": -130.90909999999997,
        "RAAN(deg)": 335.0,
        "Satellite Name": "Test1 1488",
        "Satellite Number": 1488,
        "Semi-Major Axis(m)": 6980739.136638005,
        "Time(s)": 0
    },
    {
        "Altitude(m)": 617911.2543012553,
        "Argument of Periapsis(deg)": 0.00010418945913296404,
        "Eccentricity": 0.0,
        "Inclination(deg)": 60.0,
        "Latitude(deg)": -41.565690139866284,
        "Longitude(deg)": 85.59905575106949,
        "Mean Anomaly(deg)": -130.2889938545382,
        "RAAN(deg)": 334.99957995086027,
        "Satellite Name": "Test1 1488",
        "Satellite Number": 1488,
        "Semi-Major Axis(m)": 6980739.136638005,
        "Time(s)": 10
    }
]